STARLINK-32679          
1 62507U 25003W   26068.01466806  .00036432  00000+0  13254-2 0  9997
2 62507  43.0015 293.1482 0001296 271.2196  88.8507 15.27616229 66560
FLOCK 4G-23             
1 62647U 25009AQ  26068.71663397  .00012440  00000+0  46816-3 0  9993
2 62647  97.3979 150.9478 0000905   7.2707 352.8545 15.27262579 63728
