[{"OBJECT_NAME":"STARLINK-32679","OBJECT_ID":"2025-003W","EPOCH":"2026-03-09T00:21:07.320384","MEAN_MOTION":15.27616229,"ECCENTRICITY":0.00012968,"INCLINATION":43.0015,"RA_OF_ASC_NODE":293.1482,"ARG_OF_PERICENTER":271.2196,"MEAN_ANOMALY":88.8507,"EPHEMERIS_TYPE":0,"CLASSIFICATION_TYPE":"U","NORAD_CAT_ID":62507,"ELEMENT_SET_NO":999,"REV_AT_EPOCH":6656,"BSTAR":0.0013254356,"MEAN_MOTION_DOT":0.00036432,"MEAN_MOTION_DDOT":0},{"OBJECT_NAME":"FLOCK 4G-23","OBJECT_ID":"2025-009AQ","EPOCH":"2026-03-09T17:11:57.175872","MEAN_MOTION":15.27262579,"ECCENTRICITY":9.048e-5,"INCLINATION":97.3979,"RA_OF_ASC_NODE":150.9478,"ARG_OF_PERICENTER":7.2707,"MEAN_ANOMALY":352.8545,"EPHEMERIS_TYPE":0,"CLASSIFICATION_TYPE":"U","NORAD_CAT_ID":62647,"ELEMENT_SET_NO":999,"REV_AT_EPOCH":6372,"BSTAR":0.00046815788,"MEAN_MOTION_DOT":0.0001244,"MEAN_MOTION_DDOT":0}]
